ONEWEB-0533             
1 55141U 23004B   23357.92200201  .00000148  00000+0  37675-3 0  9994
2 55141  87.9072 170.8978 0001320  91.6271 268.5009 13.12444828 49182
ONEWEB-0541             
1 55142U 23004C   23357.93060355  .00000010  00000+0 -74527-5 0  9998
2 55142  87.8964 201.1552 0001451  78.4933 281.6357 13.11418025 47168
ONEWEB-0543             
1 55143U 23004D   23357.89531000  .00000041  00000+0  70360-4 0  9997
2 55143  87.9099 155.8833 0001387 112.3866 247.7413 13.18687340 50252
ONEWEB-0544             
1 55144U 23004E   23357.88899332  .00000097  00000+0  21231-3 0  9995
2 55144  87.9124 155.8686 0001656  95.1039 265.0282 13.18684372 50256
ONEWEB-0560             
1 55145U 23004F   23357.88268196 -.00000751  00000+0 -19375-2 0  9998
2 55145  87.9219 155.7958 0001950 116.0971 244.0361 13.18687190 50265
ONEWEB-0565             
1 55146U 23004G   23357.87634132 -.00000080  00000+0 -23459-3 0  9999
2 55146  87.9148 155.8938 0002332  86.0272 274.1126 13.18685991 50250
ONEWEB-0567             
1 55147U 23004H   23357.87001414  .00000006  00000+0 -16901-4 0  9993
2 55147  87.9125 155.8521 0002126 107.5028 252.6337 13.18685098 50256
ONEWEB-0569             
1 55148U 23004J   23357.91667824 -.00829814  00000+0 -74810+0 0  9997
2 55148  87.3652 141.6649 0004889 107.8429  66.3379 13.87151078  5670
